OSCAR III [-]           
1 01293U 65016F   08197.97612158 -.00000077  00000-0 -14535-4 0  2932
2 01293  70.0713 177.9910 0020594 258.8049 101.0738 14.04644727212593
AO-5 [-]                
1 04321U 70008B   08198.00696949 -.00000031  00000-0  10000-3 0   275
2 04321 102.1250 196.7675 0027519 256.4564 103.3440 12.52153632758689
AO-6 [-]                
1 06236U 72082B   08197.95733156 -.00000027  00000-0  10000-3 0   344
2 06236 101.4170 218.6816 0003754 184.1319 175.9724 12.53074192635295
AO-7 [P]                
1 07530U 74089B   08197.62488334 -.00000027  00000-0  10000-3 0  2274
2 07530 101.4633 228.1689 0011767 205.6689 154.3795 12.53573693540545
AO-8 [-]                
1 10703U 78026B   08198.80763269  .00000052  00000-0  65725-4 0  2103
2 10703  98.8804 249.4420 0007541  22.1629 337.9856 13.98822936549138
AO-10 [-]               
1 14129U 83058B   08197.38735831 -.00000058  00000-0  10000-3 0  5303
2 14129  25.9965 205.4413 5976687 140.3763 283.8836  2.05868453160710
UO-11 [P]               
1 14781U 84021B   08197.72311679  .00000696  00000-0  10000-3 0  7204
2 14781  98.1526 232.1807 0009003 348.9201  11.1737 14.79656159308077
FO-12 [-]               
1 16909U 86061B   08197.90192697 -.00000083  00000-0  10000-3 0  4131
2 16909  50.0143 115.7084 0011378  72.0249 288.1825 12.44451978997105
UO-14 [-]               
1 20437U 90005B   08197.72128118 -.00000009  00000-0  12114-4 0  6850
2 20437  98.2892 163.9877 0011582  84.6427 275.6080 14.31519881964913
UO-15 [-]               
1 20438U 90005C   08198.86852058 -.00000006  00000-0  13780-4 0  1733
2 20438  98.3500 156.4681 0010710 106.6883 253.5478 14.30427447964533
AO-16 [P]               
1 20439U 90005D   08198.00227071 -.00000009  00000-0  11851-4 0  3698
2 20439  98.2306 176.5931 0011913  89.7744 270.4809 14.31798085965044
DO-17 [-]               
1 20440U 90005E   08197.79454591  .00000005  00000-0  16797-4 0   713
2 20440  98.2102 181.8611 0012031  86.6400 273.6159 14.32100584965147
WO-18 [-]               
1 20441U 90005F   08198.51134219  .00000014  00000-0  20365-4 0  5819
2 20441  98.2161 181.0671 0012599  88.1525 272.1097 14.31866558965183
LO-19 [P]               
1 20442U 90005G   08197.69544894  .00000026  00000-0  24837-4 0  2944
2 20442  98.2004 184.7526 0012969  88.6825 271.5843 14.32036514965159
FO-20 [-]               
1 20480U 90013C   08197.94634755 -.00000017  00000-0  37061-4 0  8882
2 20480  99.0239 175.5648 0539879 211.7126 145.0379 12.83357265863777
AO-21 [-]               
1 21087U 91006A   08198.20989233  .00000039  00000-0  24250-4 0   154
2 21087  82.9432 294.8812 0035989 139.3977 220.9876 13.75035085876243
RS-12 & RS-13 [-]       
1 21089U 91007A   08197.87391553  .00000037  00000-0  23467-4 0  8987
2 21089  82.9221 156.2405 0028683 183.4303 176.6668 13.74480947874992
UO-22 [-]               
1 21575U 91050B   08197.86793043  .00000025  00000-0  21669-4 0  3304
2 21575  98.3962 146.3823 0006785 314.6756  45.3880 14.39643991892314
KO-23 [-]               
1 22077U 92052B   08197.83176606 -.00000037  00000-0  10000-3 0  4820
2 22077  66.0863 311.1015 0000347 108.0413 252.0642 12.86444579748259
AO-24 [-]               
1 22654U 93031B   08193.43259819 -.00000137  00000-0  10000-3 0  1579
2 22654   5.3400 343.6885 2895316 141.1218 243.9210  1.42205827 74274
AO-27 [+]               
1 22825U 93061C   08197.90371714  .00000066  00000-0  42372-4 0   170
2 22825  98.3853 156.8510 0008278 169.8740 190.2612 14.29243263771870
IO-26 [-]               
1 22826U 93061D   08197.95276950 -.00000010  00000-0  12564-4 0  7236
2 22826  98.3776 157.7943 0008892 166.8832 193.2579 14.29491880771972
KO-25 [-]               
1 22828U 93061F   08197.70802336  .00000215  00000-0  10000-3 0  9515
2 22828  98.3714 157.5413 0010411 143.6082 216.5778 14.29796425740201
PO-28 [+]               
1 22829U 93061G   08197.50544214  .00000217  00000-0  10000-3 0  9941
2 22829  98.3648 158.4627 0010322 141.1625 219.0334 14.30194058772175
RS-15 [P]               
1 23439U 94085A   08197.92727693 -.00000039  00000-0  10000-3 0  1626
2 23439  64.8164  88.5744 0147226 117.4084 244.1903 11.27552315558200
FO-29 [P]               
1 24278U 96046B   08198.55553462 -.00000031  00000-0  25114-5 0  8148
2 24278  98.5850 111.0042 0351279 139.4768 223.3105 13.52938551588362
MO-30 [-]               
1 24305U 96052B   08198.21890044  .00000016  00000-0  22578-6 0  8615
2 24305  82.9342 242.5032 0031547 107.9085 252.5528 13.73560210594557
TO-31 [-]               
1 25396U 98043C   08198.07801664  .00000079  00000-0  52612-4 0  1568
2 25396  98.3740 236.8113 0003397 125.0277 235.1240 14.23759523520474
GO-32 [P]               
1 25397U 98043D   08198.70981132 -.00000075  00000-0 -14835-4 0  6487
2 25397  98.3620 232.4116 0001931 127.7841 232.3519 14.23145443520417
SO-33 [P]               
1 25509U 98061B   08197.84780877  .00000023  00000-0 -95923-5 0  2429
2 25509  31.4314 154.2996 0355338 277.7132  78.3320 14.28217289507718
PO-34 [-]               
1 25520U 98064B   08198.53417026  .00000341  00000-0  69869-5 0   379
2 25520  28.4599 342.3005 0005601 241.0562 118.9468 15.17210169537625
ARISS [+]               
1 25544U 98067A   08198.49270094  .00007449  00000-0  52914-4 0  8708
2 25544  51.6410 225.6691 0009467  21.0734 125.0672 15.75097346553141
SO-35 [-]               
1 25636U 99008C   08198.47302831 -.00000022  00000-0  23736-5 0   602
2 25636  96.4819  97.0339 0147156 204.4786 154.9386 14.43437375494674
UO-36 [-]               
1 25693U 99021A   08198.76505812 -.00000137  00000-0  12728-5 0  6787
2 25693  64.5576  66.3090 0039903 232.5945 127.1540 14.78715381498240
OO-38 [-]               
1 26063U 00004C   08198.27996508 -.00000046  00000-0  42315-5 0  2616
2 26063 100.1914 278.1347 0037259 127.2462 233.2126 14.35839707443745
SO-41 [-]               
1 26545U 00057A   08198.78570224 -.00000023  00000-0  15931-4 0   175
2 26545  64.5584  70.9985 0032554 332.2695  27.6694 14.80518392421544
MO-46 [-]               
1 26548U 00057D   08198.02376695  .00000054  00000-0  24705-4 0  1499
2 26548  64.5582  41.0429 0032741 320.3502  39.5219 14.83278364422091
SO-42 [-]               
1 26549U 00057E   08198.42136899 -.00000085  00000-0  80309-5 0   930
2 26549  64.5585  86.9086 0033697 340.3861  19.5961 14.79375740421196
AO-40 [-]               
1 26609U 00072B   08198.26660400 -.00000196  00000-0  10000-3 0   916
2 26609   7.6181  72.0233 7920827 101.9699 346.3116  1.25584494 35403
NO-44 [P]               
1 26931U 01043C   08198.46070909  .00000214  00000-0  11606-3 0  9286
2 26931  67.0514 209.2435 0007240 269.3160  90.7117 14.29529144354593
NO-45 [-]               
1 26932U 01043D   08197.66779582 -.00000050  00000-0  12915-4 0  9320
2 26932  67.0535 211.1497 0006631 285.9952  74.0418 14.29588598354523
BO-47 & BO-48 [-]       
1 27422U 02021B   08198.23651330  .00000021  00000-0  25715-4 0  8009
2 27422  98.5507 278.7529 0013131 126.7313 233.5072 14.28453419321442
AO-49 [-]               
1 27605U 02058A   08197.86261725 -.00000031  00000-0  17185-4 0  6805
2 27605  64.5599 315.2242 0085597 274.7261  84.4060 14.72355814299420
SO-50 [+]               
1 27607U 02058C   08197.89269135 -.00000001  00000-0  22029-4 0  6522
2 27607  64.5594 326.4595 0086308 273.9144  85.2099 14.71368020299191
DTUSAT [-]              
1 27842U 03031C   08198.51110168 -.00000004  00000-0  18258-4 0  3312
2 27842  98.7094 207.3629 0009841  17.7086 342.4442 14.20938412261671
CO-55 [+]               
1 27844U 03031E   08197.68046494  .00000022  00000-0  30440-4 0  3519
2 27844  98.7150 205.5502 0010894  38.3136 321.8809 14.20587744261486
AAU CUBESAT [-]         
1 27846U 03031G   08198.51085239 -.00000016  00000-0  12737-4 0  2741
2 27846  98.7096 207.3577 0010067  16.9647 343.1854 14.20939319261677
CANX-1 [-]              
1 27847U 03031H   08197.52984179  .00000005  00000-0  22295-4 0  2863
2 27847  98.7098 206.3857 0009837  20.3938 339.7626 14.20925493261480
CO-57 [+]               
1 27848U 03031J   08198.03460204  .00000023  00000-0  31314-4 0  3020
2 27848  98.7163 204.9905 0010644  40.2547 319.9407 14.20396513261502
RS-22 [+]               
1 27939U 03042A   08197.69861980  .00000061  00000-0  20793-4 0  5450
2 27939  97.9934  77.8835 0014760 111.4854 248.7938 14.63245298256360
AO-51 [+]               
1 28375U 04025K   08198.08132488 -.00000005  00000-0  11043-4 0  1492
2 28375  98.0692 221.0245 0085272  65.0710 295.9309 14.40613318212564
VO-52 [+]               
1 28650U 05017B   08197.70618891  .00000255  00000-0  39016-4 0  9815
2 28650  97.7879 263.5329 0028160  49.2828 311.0800 14.81483053172820
UWE-1 [-]               
1 28892U 05043C   08198.42364117  .00000071  00000-0  24522-4 0   982
2 28892  98.0928  91.3626 0016698 321.4131  38.5862 14.59644567144865
XO-53 [-]               
1 28894U 05043E   08198.30717609  .00000005  00000-0  10614-4 0  2121
2 28894  98.0938  91.5018 0017237 323.7710  36.2329 14.59625893144856
CO-58 [+]               
1 28895U 05043F   08198.11659257 -.00000028  00000-0  38372-5 0   705
2 28895  98.0961  91.4354 0017215 322.5518  37.4475 14.59682488144706
NCUBE-2 [-]             
1 28897U 05043H   08198.21481771  .00000064  00000-0  23076-4 0  6015
2 28897  98.0935  91.4595 0016848 323.6943  36.3122 14.59854346137007
CO-56 [P]               
1 28941U 06005C   08198.61833127  .00008545  25943-5  66537-4 0  2244
2 28941  98.1084 313.3871 0161006 294.1751  64.2759 15.58182700134621
PEHUENSAT 1 [+]         
1 29712U 07001D   08198.83273720  .00000423  00000-0  62398-4 0  6232
2 29712  97.8736 256.4615 0013010 287.8822  72.0964 14.80212219 81854
